
# Worst residual: 10.64 km
# MJD 59041.000000 (2020 Jul 11  0:00)
S511443
1 99999U 00000    20193.49919926  .00000000  00000-0  00000-0 0  7245
2 99999 023.8520 315.8618 8134206 267.5762 112.2359 01.18589206    01

# Worst residual: 9.01 km
# MJD 59042.000000 (2020 Jul 12  0:00)
S511443
1 99999U 00000    20194.49919926  .00000000  00000-0  00000-0 0  7246
2 99999 023.8502 315.6955 8134391 267.8615 179.1245 01.18587832    07

# Worst residual: 9.60 km
# MJD 59043.000000 (2020 Jul 13  0:00)
S511443
1 99999U 00000    20195.49919926  .00000000  00000-0  00000-0 0  7247
2 99999 023.8492 315.5037 8134641 268.1709 246.0089 01.18587801    07

# Worst residual: 8.72 km
# MJD 59044.000000 (2020 Jul 14  0:00)
S511443
1 99999U 00000    20196.49919926  .00000000  00000-0  00000-0 0  7248
2 99999 023.8482 315.3383 8134769 268.4557 312.8998 01.18592918    09

# Worst residual: 7.54 km
# MJD 59045.000000 (2020 Jul 15  0:00)
S511443
1 99999U 00000    20197.49919926  .00000000  00000-0  00000-0 0  7249
2 99999 023.8462 315.1626 8134338 268.7490 019.7849 01.18597460    01

# Worst residual: 8.44 km
# MJD 59046.000000 (2020 Jul 16  0:00)
S511443
1 99999U 00000    20198.49919926  .00000000  00000-0  00000-0 0  7240
2 99999 023.8463 314.9889 8134351 269.0398 086.6718 01.18593972    08

# Worst residual: 8.46 km
# MJD 59047.000000 (2020 Jul 17  0:00)
S511443
1 99999U 00000    20199.49919926  .00000000  00000-0  00000-0 0  7241
2 99999 023.8461 314.8291 8133785 269.3207 153.5553 01.18587050    05

# Worst residual: 9.76 km
# MJD 59048.000000 (2020 Jul 18  0:00)
S511443
1 99999U 00000    20200.49919926  .00000000  00000-0  00000-0 0  7244
2 99999 023.8452 314.6554 8132938 269.6130 220.4365 01.18587311    07

# Worst residual: 11.94 km
# MJD 59049.000000 (2020 Jul 19  0:00)
S511443
1 99999U 00000    20201.49919926  .00000000  00000-0  00000-0 0  7245
2 99999 023.8439 314.4891 8132456 269.8962 287.3255 01.18588336    02

# Worst residual: 9.28 km
# MJD 59050.000000 (2020 Jul 20  0:00)
S511443
1 99999U 00000    20202.49919926  .00000000  00000-0  00000-0 0  7246
2 99999 023.8419 314.3216 8131880 270.1753 354.2266 01.18593902    04

# Worst residual: 10.76 km
# MJD 59051.000000 (2020 Jul 21  0:00)
S511443
1 99999U 00000    20203.49919926  .00000000  00000-0  00000-0 0  7247
2 99999 023.8410 314.1548 8131802 270.4531 061.1234 01.18594746    08

# Worst residual: 11.33 km
# MJD 59052.000000 (2020 Jul 22  0:00)
S511443
1 99999U 00000    20204.49919926  .00000000  00000-0  00000-0 0  7248
2 99999 023.8408 313.9901 8132199 270.7321 128.0148 01.18589077    03

# Worst residual: 10.64 km
# MJD 59053.000000 (2020 Jul 23  0:00)
S511443
1 99999U 00000    20205.49919926  .00000000  00000-0  00000-0 0  7249
2 99999 023.8404 313.8099 8132116 271.0303 194.8918 01.18581736    09

# Worst residual: 9.79 km
# MJD 59054.000000 (2020 Jul 24  0:00)
S511443
1 99999U 00000    20206.49919926  .00000000  00000-0  00000-0 0  7240
2 99999 023.8398 313.6381 8132565 271.3220 261.7726 01.18588660    06

# Worst residual: 10.21 km
# MJD 59055.000000 (2020 Jul 25  0:00)
S511443
1 99999U 00000    20207.49919926  .00000000  00000-0  00000-0 0  7241
2 99999 023.8384 313.4792 8132339 271.6016 328.6493 01.18593580    01

# Worst residual: 9.10 km
# MJD 59056.000000 (2020 Jul 26  0:00)
S511443
1 99999U 00000    20208.49919926  .00000000  00000-0  00000-0 0  7242
2 99999 023.8376 313.3127 8132075 271.8818 035.5444 01.18596942    07

# Worst residual: 9.04 km
# MJD 59057.000000 (2020 Jul 27  0:00)
S511443
1 99999U 00000    20209.49919926  .00000000  00000-0  00000-0 0  7243
2 99999 023.8383 313.1509 8132020 272.1612 102.4257 01.18590373    01

# Worst residual: 9.69 km
# MJD 59058.000000 (2020 Jul 28  0:00)
S511443
1 99999U 00000    20210.49919926  .00000000  00000-0  00000-0 0  7245
2 99999 023.8375 312.9981 8131994 272.4331 169.3142 01.18586441    09

# Worst residual: 10.40 km
# MJD 59059.000000 (2020 Jul 29  0:00)
S511443
1 99999U 00000    20211.49919926  .00000000  00000-0  00000-0 0  7246
2 99999 023.8370 312.8163 8131857 272.7328 236.1932 01.18585975    03

# Worst residual: 9.13 km
# MJD 59060.000000 (2020 Jul 30  0:00)
S511443
1 99999U 00000    20212.49919926  .00000000  00000-0  00000-0 0  7247
2 99999 023.8365 312.6650 8131828 273.0033 303.0857 01.18591432    06

# Worst residual: 9.42 km
# MJD 59061.000000 (2020 Jul 31  0:00)
S511443
1 99999U 00000    20213.49919926  .00000000  00000-0  00000-0 0  7248
2 99999 023.8356 312.4872 8131698 273.2955 009.9729 01.18598834    03

# Worst residual: 10.22 km
# MJD 59062.000000 (2020 Aug  1  0:00)
S511443
1 99999U 00000    20214.49919926  .00000000  00000-0  00000-0 0  7249
2 99999 023.8358 312.3175 8131792 273.5784 076.8684 01.18593712    01

# Worst residual: 9.73 km
# MJD 59063.000000 (2020 Aug  2  0:00)
S511443
1 99999U 00000    20215.49919926  .00000000  00000-0  00000-0 0  7240
2 99999 023.8363 312.1571 8131732 273.8583 143.7471 01.18588706    04

# Worst residual: 10.46 km
# MJD 59064.000000 (2020 Aug  3  0:00)
S511443
1 99999U 00000    20216.49919926  .00000000  00000-0  00000-0 0  7241
2 99999 023.8358 311.9822 8131139 274.1508 210.6300 01.18583501    09

# Worst residual: 11.61 km
# MJD 59065.000000 (2020 Aug  4  0:00)
S511443
1 99999U 00000    20217.49919926  .00000000  00000-0  00000-0 0  7242
2 99999 023.8357 311.8210 8131219 274.4309 277.5142 01.18589883    04

# Worst residual: 10.13 km
# MJD 59066.000000 (2020 Aug  5  0:00)
S511443
1 99999U 00000    20218.49919926  .00000000  00000-0  00000-0 0  7243
2 99999 023.8342 311.6643 8130558 274.7008 344.4141 01.18595242    09

# Worst residual: 10.01 km
# MJD 59067.000000 (2020 Aug  6  0:00)
S511443
1 99999U 00000    20219.49919926  .00000000  00000-0  00000-0 0  7244
2 99999 023.8336 311.4975 8130462 274.9784 051.3109 01.18595620    03

# Worst residual: 11.49 km
# MJD 59068.000000 (2020 Aug  7  0:00)
S511443
1 99999U 00000    20220.49919926  .00000000  00000-0  00000-0 0  7246
2 99999 023.8340 311.3325 8130678 275.2558 118.2118 01.18588700    02

# Worst residual: 9.71 km
# MJD 59069.000000 (2020 Aug  8  0:00)
S511443
1 99999U 00000    20221.49919926  .00000000  00000-0  00000-0 0  7247
2 99999 023.8331 311.1681 8130784 275.5365 185.1009 01.18587097    02

# Worst residual: 8.69 km
# MJD 59070.000000 (2020 Aug  9  0:00)
S511443
1 99999U 00000    20222.49919926  .00000000  00000-0  00000-0 0  7248
2 99999 023.8341 310.9838 8131278 275.8372 251.9890 01.18588986    02

# Worst residual: 8.80 km
# MJD 59071.000000 (2020 Aug 10  0:00)
S511443
1 99999U 00000    20223.49919926  .00000000  00000-0  00000-0 0  7249
2 99999 023.8326 310.8225 8131492 276.1170 318.8759 01.18593757    01

# Worst residual: 7.79 km
# MJD 59072.000000 (2020 Aug 11  0:00)
S511443
1 99999U 00000    20224.49919926  .00000000  00000-0  00000-0 0  7240
2 99999 023.8325 310.6478 8131270 276.4060 025.7687 01.18596865    00
